EXCITE                  
1 43819U 18099BP  26068.69809098  .00002813  00000+0  19631-3 0  9999
2 43819  97.4107 111.3606 0017626 337.4818  22.5634 15.06036758396774
STARLINK-6349           
1 57241U 23094Z   26067.28986102  .00076097  00000+0  54954-2 0  9991
2 57241  43.0026  25.4269 0000742  85.9671 274.1256 15.03162086147059
