[{"OBJECT_NAME":"EXCITE","OBJECT_ID":"2018-099BP","EPOCH":"2026-03-09T16:45:15.060672","MEAN_MOTION":15.06036758,"ECCENTRICITY":0.0017626,"INCLINATION":97.4107,"RA_OF_ASC_NODE":111.3606,"ARG_OF_PERICENTER":337.4818,"MEAN_ANOMALY":22.5634,"EPHEMERIS_TYPE":0,"CLASSIFICATION_TYPE":"U","NORAD_CAT_ID":43819,"ELEMENT_SET_NO":999,"REV_AT_EPOCH":39677,"BSTAR":0.00019631388,"MEAN_MOTION_DOT":2.813e-5,"MEAN_MOTION_DDOT":0},{"OBJECT_NAME":"STARLINK-6349","OBJECT_ID":"2023-094Z","EPOCH":"2026-03-08T06:57:23.992128","MEAN_MOTION":15.03162086,"ECCENTRICITY":7.428e-5,"INCLINATION":43.0026,"RA_OF_ASC_NODE":25.4269,"ARG_OF_PERICENTER":85.9671,"MEAN_ANOMALY":274.1256,"EPHEMERIS_TYPE":0,"CLASSIFICATION_TYPE":"U","NORAD_CAT_ID":57241,"ELEMENT_SET_NO":999,"REV_AT_EPOCH":14705,"BSTAR":0.005495395,"MEAN_MOTION_DOT":0.00076097,"MEAN_MOTION_DDOT":0}]
